{
 "type": "Feature",
 "properties": {
  "name": "greenland-outline"
 },
 "geometry": {
  "type": "Polygon",
  "coordinates": [
   [
    [
     -43.9,
     59.6
    ],
    [
     -40.0,
     61.9
    ],
    [
     -36.0,
     64.9
    ],
    [
     -31.5,
     67.9
    ],
    [
     -25.0,
     69.3
    ],
    [
     -21.3,
     70.4
    ],
    [
     -21.3,
     71.6
    ],
    [
     -17.3,
     75.0
    ],
    [
     -17.3,
     77.5
    ],
    [
     -16.8,
     79.5
    ],
    [
     -10.8,
     81.5
    ],
    [
     -20.0,
     83.1
    ],
    [
     -33.0,
     83.8
    ],
    [
     -45.0,
     83.3
    ],
    [
     -57.0,
     82.5
    ],
    [
     -62.5,
     82.0
    ],
    [
     -65.0,
     81.1
    ],
    [
     -73.4,
     78.6
    ],
    [
     -73.4,
     77.0
    ],
    [
     -68.0,
     75.9
    ],
    [
     -58.5,
     75.6
    ],
    [
     -57.3,
     74.0
    ],
    [
     -56.3,
     72.0
    ],
    [
     -54.9,
     70.0
    ],
    [
     -54.9,
     68.0
    ],
    [
     -54.9,
     66.0
    ],
    [
     -53.9,
     64.5
    ],
    [
     -51.2,
     62.4
    ],
    [
     -48.6,
     60.2
    ],
    [
     -43.9,
     59.6
    ]
   ]
  ]
 }
}